[{"CCSDS_OMM_VERS":"2.0","COMMENT":"GENERATED VIA SPACE-TRACK.ORG API","CREATION_DATE":"2018-04-21T15:25:27","ORIGINATOR":"18 SPCS","OBJECT_NAME":"UPSAT","OBJECT_ID":"1998-067LX","CENTER_NAME":"EARTH","REF_FRAME":"TEME","TIME_SYSTEM":"UTC","MEAN_ELEMENT_THEORY":"SGP4","EPOCH":"2018-04-21T11:20:28.140288","MEAN_MOTION":"15.71435705","ECCENTRICITY":"0.00018220","INCLINATION":"51.6345","RA_OF_ASC_NODE":"281.7212","ARG_OF_PERICENTER":"7.6407","MEAN_ANOMALY":"352.4618","EPHEMERIS_TYPE":"0","CLASSIFICATION_TYPE":"U","NORAD_CAT_ID":"42716","ELEMENT_SET_NO":"999","REV_AT_EPOCH":"5284","BSTAR":"0.00050464000000","MEAN_MOTION_DOT":"0.00065735","MEAN_MOTION_DDOT":"0.0000000000000","SEMIMAJOR_AXIS":"6732.929","PERIOD":"91.635","APOAPSIS":"356.021","PERIAPSIS":"353.568","OBJECT_TYPE":"PAYLOAD","RCS_SIZE":"SMALL","COUNTRY_CODE":"GREC","LAUNCH_DATE":"1998-11-20","SITE":"TTMTR","DECAY_DATE":null,"FILE":"2274371","GP_ID":"119565992","TLE_LINE0":"0 UPSAT","TLE_LINE1":"1 42716U 98067LX  18111.47254792  .00065735  00000-0  50464-3 0  9990","TLE_LINE2":"2 42716  51.6345 281.7212 0001822   7.6407 352.4618 15.71435705 52842"},{"CCSDS_OMM_VERS":"2.0","COMMENT":"GENERATED VIA SPACE-TRACK.ORG API","CREATION_DATE":"2018-04-21T22:01:53","ORIGINATOR":"18 SPCS","OBJECT_NAME":"UPSAT","OBJECT_ID":"1998-067LX","CENTER_NAME":"EARTH","REF_FRAME":"TEME","TIME_SYSTEM":"UTC","MEAN_ELEMENT_THEORY":"SGP4","EPOCH":"2018-04-21T12:52:02.557344","MEAN_MOTION":"15.71441882","ECCENTRICITY":"0.00018040","INCLINATION":"51.6345","RA_OF_ASC_NODE":"281.3957","ARG_OF_PERICENTER":"8.0170","MEAN_ANOMALY":"352.0857","EPHEMERIS_TYPE":"0","CLASSIFICATION_TYPE":"U","NORAD_CAT_ID":"42716","ELEMENT_SET_NO":"999","REV_AT_EPOCH":"5285","BSTAR":"0.00040476000000","MEAN_MOTION_DOT":"0.00052534","MEAN_MOTION_DDOT":"0.0000000000000","SEMIMAJOR_AXIS":"6732.912","PERIOD":"91.635","APOAPSIS":"355.991","PERIAPSIS":"353.562","OBJECT_TYPE":"PAYLOAD","RCS_SIZE":"SMALL","COUNTRY_CODE":"GREC","LAUNCH_DATE":"1998-11-20","SITE":"TTMTR","DECAY_DATE":null,"FILE":"2274456","GP_ID":"119577052","TLE_LINE0":"0 UPSAT","TLE_LINE1":"1 42716U 98067LX  18111.53614071 +.00052534 +00000-0 +40476-3 0  9992","TLE_LINE2":"2 42716 051.6345 281.3957 0001804 008.0170 352.0857 15.71441882052851"},{"CCSDS_OMM_VERS":"2.0","COMMENT":"GENERATED VIA SPACE-TRACK.ORG API","CREATION_DATE":"2018-04-21T23:12:57","ORIGINATOR":"18 SPCS","OBJECT_NAME":"UPSAT","OBJECT_ID":"1998-067LX","CENTER_NAME":"EARTH","REF_FRAME":"TEME","TIME_SYSTEM":"UTC","MEAN_ELEMENT_THEORY":"SGP4","EPOCH":"2018-04-21T20:29:54.429216","MEAN_MOTION":"15.71476830","ECCENTRICITY":"0.00017520","INCLINATION":"51.6345","RA_OF_ASC_NODE":"279.7684","ARG_OF_PERICENTER":"8.4470","MEAN_ANOMALY":"351.6558","EPHEMERIS_TYPE":"0","CLASSIFICATION_TYPE":"U","NORAD_CAT_ID":"42716","ELEMENT_SET_NO":"999","REV_AT_EPOCH":"5290","BSTAR":"0.00041669000000","MEAN_MOTION_DOT":"0.00054191","MEAN_MOTION_DDOT":"0.0000000000000","SEMIMAJOR_AXIS":"6732.812","PERIOD":"91.633","APOAPSIS":"355.857","PERIAPSIS":"353.497","OBJECT_TYPE":"PAYLOAD","RCS_SIZE":"SMALL","COUNTRY_CODE":"GREC","LAUNCH_DATE":"1998-11-20","SITE":"TTMTR","DECAY_DATE":null,"FILE":"2274542","GP_ID":"119579412","TLE_LINE0":"0 UPSAT","TLE_LINE1":"1 42716U 98067LX  18111.85410219  .00054191  00000-0  41669-3 0  9991","TLE_LINE2":"2 42716  51.6345 279.7684 0001752   8.4470 351.6558 15.71476830 52908"},{"CCSDS_OMM_VERS":"2.0","COMMENT":"GENERATED VIA SPACE-TRACK.ORG API","CREATION_DATE":"2018-04-22T15:13:11","ORIGINATOR":"18 SPCS","OBJECT_NAME":"UPSAT","OBJECT_ID":"1998-067LX","CENTER_NAME":"EARTH","REF_FRAME":"TEME","TIME_SYSTEM":"UTC","MEAN_ELEMENT_THEORY":"SGP4","EPOCH":"2018-04-22T11:45:36.373248","MEAN_MOTION":"15.71542463","ECCENTRICITY":"0.00018750","INCLINATION":"51.6341","RA_OF_ASC_NODE":"276.5156","ARG_OF_PERICENTER":"9.3268","MEAN_ANOMALY":"350.7765","EPHEMERIS_TYPE":"0","CLASSIFICATION_TYPE":"U","NORAD_CAT_ID":"42716","ELEMENT_SET_NO":"999","REV_AT_EPOCH":"5300","BSTAR":"0.00038305000000","MEAN_MOTION_DOT":"0.00049881","MEAN_MOTION_DDOT":"0.0000000000000","SEMIMAJOR_AXIS":"6732.625","PERIOD":"91.629","APOAPSIS":"355.752","PERIAPSIS":"353.227","OBJECT_TYPE":"PAYLOAD","RCS_SIZE":"SMALL","COUNTRY_CODE":"GREC","LAUNCH_DATE":"1998-11-20","SITE":"TTMTR","DECAY_DATE":null,"FILE":"2274834","GP_ID":"119594471","TLE_LINE0":"0 UPSAT","TLE_LINE1":"1 42716U 98067LX  18112.49000432  .00049881  00000-0  38305-3 0  9997","TLE_LINE2":"2 42716  51.6341 276.5156 0001875   9.3268 350.7765 15.71542463 53002"},{"CCSDS_OMM_VERS":"2.0","COMMENT":"GENERATED VIA SPACE-TRACK.ORG API","CREATION_DATE":"2018-04-22T22:11:04","ORIGINATOR":"18 SPCS","OBJECT_NAME":"UPSAT","OBJECT_ID":"1998-067LX","CENTER_NAME":"EARTH","REF_FRAME":"TEME","TIME_SYSTEM":"UTC","MEAN_ELEMENT_THEORY":"SGP4","EPOCH":"2018-04-22T13:17:10.430880","MEAN_MOTION":"15.71547648","ECCENTRICITY":"0.00018600","INCLINATION":"51.6341","RA_OF_ASC_NODE":"276.1900","ARG_OF_PERICENTER":"9.2562","MEAN_ANOMALY":"350.8470","EPHEMERIS_TYPE":"0","CLASSIFICATION_TYPE":"U","NORAD_CAT_ID":"42716","ELEMENT_SET_NO":"999","REV_AT_EPOCH":"5301","BSTAR":"0.00033627000000","MEAN_MOTION_DOT":"0.00043691","MEAN_MOTION_DDOT":"0.0000000000000","SEMIMAJOR_AXIS":"6732.610","PERIOD":"91.629","APOAPSIS":"355.727","PERIAPSIS":"353.222","OBJECT_TYPE":"PAYLOAD","RCS_SIZE":"SMALL","COUNTRY_CODE":"GREC","LAUNCH_DATE":"1998-11-20","SITE":"TTMTR","DECAY_DATE":null,"FILE":"2274904","GP_ID":"119605839","TLE_LINE0":"0 UPSAT","TLE_LINE1":"1 42716U 98067LX  18112.55359295 +.00043691 +00000-0 +33627-3 0  9993","TLE_LINE2":"2 42716 051.6341 276.1900 0001860 009.2562 350.8470 15.71547648053010"},{"CCSDS_OMM_VERS":"2.0","COMMENT":"GENERATED VIA SPACE-TRACK.ORG API","CREATION_DATE":"2018-04-22T23:08:20","ORIGINATOR":"18 SPCS","OBJECT_NAME":"UPSAT","OBJECT_ID":"1998-067LX","CENTER_NAME":"EARTH","REF_FRAME":"TEME","TIME_SYSTEM":"UTC","MEAN_ELEMENT_THEORY":"SGP4","EPOCH":"2018-04-22T20:55:00.502176","MEAN_MOTION":"15.71576059","ECCENTRICITY":"0.00017540","INCLINATION":"51.6342","RA_OF_ASC_NODE":"274.5624","ARG_OF_PERICENTER":"9.7851","MEAN_ANOMALY":"350.3181","EPHEMERIS_TYPE":"0","CLASSIFICATION_TYPE":"U","NORAD_CAT_ID":"42716","ELEMENT_SET_NO":"999","REV_AT_EPOCH":"5306","BSTAR":"0.00033604000000","MEAN_MOTION_DOT":"0.00043714","MEAN_MOTION_DDOT":"0.0000000000000","SEMIMAJOR_AXIS":"6732.529","PERIOD":"91.627","APOAPSIS":"355.574","PERIAPSIS":"353.213","OBJECT_TYPE":"PAYLOAD","RCS_SIZE":"SMALL","COUNTRY_CODE":"GREC","LAUNCH_DATE":"1998-11-20","SITE":"TTMTR","DECAY_DATE":null,"FILE":"2274976","GP_ID":"119608097","TLE_LINE0":"0 UPSAT","TLE_LINE1":"1 42716U 98067LX  18112.87153359  .00043714  00000-0  33604-3 0  9992","TLE_LINE2":"2 42716  51.6342 274.5624 0001754   9.7851 350.3181 15.71576059 53061"},{"CCSDS_OMM_VERS":"2.0","COMMENT":"GENERATED VIA SPACE-TRACK.ORG API","CREATION_DATE":"2018-04-23T05:39:37","ORIGINATOR":"18 SPCS","OBJECT_NAME":"UPSAT","OBJECT_ID":"1998-067LX","CENTER_NAME":"EARTH","REF_FRAME":"TEME","TIME_SYSTEM":"UTC","MEAN_ELEMENT_THEORY":"SGP4","EPOCH":"2018-04-22T22:26:34.480320","MEAN_MOTION":"15.71581159","ECCENTRICITY":"0.00017520","INCLINATION":"51.6342","RA_OF_ASC_NODE":"274.2370","ARG_OF_PERICENTER":"10.6755","MEAN_ANOMALY":"349.4280","EPHEMERIS_TYPE":"0","CLASSIFICATION_TYPE":"U","NORAD_CAT_ID":"42716","ELEMENT_SET_NO":"999","REV_AT_EPOCH":"5307","BSTAR":"0.00033439000000","MEAN_MOTION_DOT":"0.00043505","MEAN_MOTION_DDOT":"0.0000000000000","SEMIMAJOR_AXIS":"6732.514","PERIOD":"91.627","APOAPSIS":"355.559","PERIAPSIS":"353.199","OBJECT_TYPE":"PAYLOAD","RCS_SIZE":"SMALL","COUNTRY_CODE":"GREC","LAUNCH_DATE":"1998-11-20","SITE":"TTMTR","DECAY_DATE":null,"FILE":"2275048","GP_ID":"119617052","TLE_LINE0":"0 UPSAT","TLE_LINE1":"1 42716U 98067LX  18112.93512130 +.00043505 +00000-0 +33439-3 0  9999","TLE_LINE2":"2 42716 051.6342 274.2370 0001752 010.6755 349.4280 15.71581159053075"},{"CCSDS_OMM_VERS":"2.0","COMMENT":"GENERATED VIA SPACE-TRACK.ORG API","CREATION_DATE":"2018-04-23T07:10:52","ORIGINATOR":"18 SPCS","OBJECT_NAME":"UPSAT","OBJECT_ID":"1998-067LX","CENTER_NAME":"EARTH","REF_FRAME":"TEME","TIME_SYSTEM":"UTC","MEAN_ELEMENT_THEORY":"SGP4","EPOCH":"2018-04-23T01:29:42.338112","MEAN_MOTION":"15.71592263","ECCENTRICITY":"0.00018090","INCLINATION":"51.6342","RA_OF_ASC_NODE":"273.5866","ARG_OF_PERICENTER":"10.6309","MEAN_ANOMALY":"349.4727","EPHEMERIS_TYPE":"0","CLASSIFICATION_TYPE":"U","NORAD_CAT_ID":"42716","ELEMENT_SET_NO":"999","REV_AT_EPOCH":"5309","BSTAR":"0.00035214000000","MEAN_MOTION_DOT":"0.00045881","MEAN_MOTION_DDOT":"0.0000000000000","SEMIMAJOR_AXIS":"6732.482","PERIOD":"91.626","APOAPSIS":"355.565","PERIAPSIS":"353.129","OBJECT_TYPE":"PAYLOAD","RCS_SIZE":"SMALL","COUNTRY_CODE":"GREC","LAUNCH_DATE":"1998-11-20","SITE":"TTMTR","DECAY_DATE":null,"FILE":"2275135","GP_ID":"119619363","TLE_LINE0":"0 UPSAT","TLE_LINE1":"1 42716U 98067LX  18113.06229558  .00045881  00000-0  35214-3 0  9995","TLE_LINE2":"2 42716  51.6342 273.5866 0001809  10.6309 349.4727 15.71592263 53091"}]